IRIDIUM 150             
1 43257U 18030J   25140.42115166  .00000071  00000+0  18435-4 0  9993
2 43257  86.3945  94.6735 0002580  87.0082 273.1409 14.34217530373865
IRIDIUM 143             
1 43258U 18030K   25140.82073514  .00000002  00000+0 -63017-5 0  9990
2 43258  86.3951  94.5842 0002670  85.1405 275.0096 14.34217583373859
IRIDIUM 161             
1 43478U 18047C   25140.75643808  .00000380  00000+0  10683-3 0  9990
2 43478  86.4491 252.4004 0002087  95.5895 264.5544 14.43285320368532
IRIDIUM 152             
1 43479U 18047D   25140.79345151  .00000004  00000+0 -56307-5 0  9994
2 43479  86.3965 252.2454 0002077  99.2104 260.9327 14.34217643366246
IRIDIUM 147             
1 43480U 18047E   25140.79979458 -.00000028  00000+0 -17079-4 0  9998
2 43480  86.3967 252.2411 0001973  92.2764 267.8658 14.34217364366245
IRIDIUM 110             
1 43481U 18047F   25140.80613599  .00000094  00000+0  26508-4 0  9990
2 43481  86.3967 252.3198 0001745 100.9239 259.2153 14.34216918366238
IRIDIUM 162             
1 43482U 18047G   25140.75014041  .00000372  00000+0  10462-3 0  9992
2 43482  86.4490 252.2986 0002114 101.9750 258.1688 14.43282437368529
IRIDIUM 160             
1 43569U 18061A   25140.75197318 -.00000006  00000+0 -92399-5 0  9990
2 43569  86.4009 220.7327 0001920  96.3291 263.8123 14.34217515357127
